RADUGA 1 [-]            
1 08513U 75123A   22270.04214047  .00000008  00000+0  00000+0 0  9996
2 08513   6.2987 287.1738 0008200 219.2589 298.7434  1.00272926181313
RADUGA 2 [-]            
1 09416U 76092A   22269.88031802 -.00000130  00000+0  00000+0 0  9998
2 09416   6.9624 289.1648 0026218 357.7517 113.7568  1.00297842115710
RADUGA 3 [-]            
1 10159U 77071A   22269.85382962 -.00000289  00000+0  00000+0 0  9990
2 10159   7.5782 291.7636 0009868 236.7737 242.8665  1.00206373163417
RADUGA 4 [-]            
1 10987U 78073A   22269.75039514  .00000136  00000+0  00000+0 0  9993
2 10987   8.2041 295.2817 0007783 355.0857  25.6489  1.00298929105970
RADUGA 5 [-]            
1 11343U 79035A   22269.88674251 -.00000185  00000+0  00000+0 0  9991
2 11343   8.6632 298.0423 0006992 176.8257 294.3988  1.00260447115722
RADUGA 6 [-]            
1 11708U 80016A   22269.87656506 -.00000047  00000+0  00000+0 0  9996
2 11708   9.0239 301.1172 0003585 205.9529 242.0469  1.00342672108539
RADUGA 7 [-]            
1 12003U 80081A   22269.95223692 -.00000206  00000+0  00000+0 0  9999
2 12003   9.2082 303.0677 0010369 259.7646 119.1886  1.00284835109794
RADUGA 8 [-]            
1 12351U 81027A   22270.54155462 -.00000367  00000+0  00000+0 0  9990
2 12351   9.5382 303.6494 0083140 230.0687 138.7193  1.00396449108896
RADUGA 9 [-]            
1 12618U 81069A   22269.87598117  .00000017  00000+0  00000+0 0  9995
2 12618   9.7602 306.6210 0004579 163.7784 270.9408  1.00349780 33719
RADUGA 10 [-]           
1 12897U 81102A   22269.88941808 -.00000193  00000+0  00000+0 0  9998
2 12897   9.8457 307.6000 0006499 183.4543 279.2181  1.00282771103714
RADUGA 11 [-]           
1 13669U 82113A   22269.42095816 -.00000158  00000+0  00000+0 0  9999
2 13669  11.8970 321.3361 0038447 254.4489 122.9044  0.97710079108252
RADUGA 12 [-]           
1 13974U 83028A   22269.87904187 -.00000035  00000+0  00000+0 0  9997
2 13974  10.9934 317.3726 0002724 133.8510 298.3478  1.00287452155749
RADUGA 13 [-]           
1 14307U 83088A   22270.02252039 -.00000173  00000+0  00000+0 0  9998
2 14307  12.1456 322.8752 0014354  46.1750 331.1194  0.98175299105597
RADUGA 14 [-]           
1 14725U 84016A   22269.88951069 -.00000211  00000+0  00000+0 0  9998
2 14725  11.2025 321.1398 0005775 148.6900 302.5379  1.00267365104476
RADUGA 15 [-]           
1 15057U 84063A   22270.55380412 -.00000355  00000+0  00000+0 0  9992
2 15057  11.3239 322.1226 0006537 162.8840 208.1090  1.00296218127466
RADUGA 16 [-]           
1 15946U 85070A   22269.50933818  .00000095  00000+0  00000+0 0  9995
2 15946  11.7915 326.8006 0003029 168.1332 244.1333  1.00296838108594
RADUGA 17 [-]           
1 16250U 85107A   22270.38638792 -.00000195  00000+0  00000+0 0  9998
2 16250  11.9141 328.1828 0015531 182.9190 268.4249  1.00131871138199
RADUGA 18 [-]           
1 16497U 86007A   22269.79007706  .00000031  00000+0  00000+0 0  9997
2 16497  12.7248 330.9010 0076419 166.8176 202.3459  0.98811341132489
RADUGA 19 [-]           
1 17046U 86082A   22270.02208440 -.00000195  00000+0  00000+0 0  9999
2 17046  13.1563 334.8338 0014431 152.1459 210.9095  0.98461652129572
RADUGA 20 [-]           
1 17611U 87028A   22269.76750819 -.00000075  00000+0  00000+0 0  9996
2 17611  15.1735 338.3535 0031341 139.9073 218.1045  0.95961011125263
RADUGA 21 [-]           
1 18631U 87100A   22269.37521250  .00000115  00000+0  00000+0 0  9996
2 18631  13.2463 335.6802 0004211 137.2433 234.0072  1.00301024127456
RADUGA 22 [-]           
1 19596U 88095A   22270.55065272 -.00000366  00000+0  00000+0 0  9999
2 19596  13.2321 339.9692 0008290 143.4388 203.5659  1.00212673108084
RADUGA 23 [-]           
1 19928U 89030A   22269.76785542  .00000104  00000+0  00000+0 0  9997
2 19928  13.3834 341.7952 0022984 164.4788 182.2275  1.00341597121211
RADUGA-1 1 [-]          
1 20083U 89048A   22270.34510896  .00000026  00000+0  00000+0 0  9997
2 20083  14.1383 344.8565 0023131 117.6515 270.3942  0.98707208117856
RADUGA 24 [-]           
1 20367U 89098A   22269.78452289  .00000054  00000+0  00000+0 0  9995
2 20367  13.9595 344.0531 0002775 144.4579 217.3690  1.00218270119344
RADUGA 25 [-]           
1 20499U 90016A   22270.22377603 -.00000257  00000+0  00000+0 0  9996
2 20499  13.7293 344.7058 0006448 147.4101 240.5062  1.00180513119326
RADUGA 26 [-]           
1 21016U 90112A   22269.87893403 -.00000060  00000+0  00000+0 0  9991
2 21016  14.0470 347.9638 0007827  99.7208 303.7791  1.00320622116618
RADUGA-1 2 [-]          
1 21038U 90116A   22269.93719118  .00000097  00000+0  00000+0 0  9995
2 21038  14.0850 348.0354 0009254 106.7409 297.3513  1.00280066116289
RADUGA 27 [-]           
1 21132U 91014A   22268.96502684  .00000098  00000+0  00000+0 0  9999
2 21132  14.5952 347.5815 0004466 113.1726 270.5205  1.00291634115678
RADUGA 28 [-]           
1 21821U 91087A   22269.85121466 -.00000241  00000+0  00000+0 0  9999
2 21821  14.3649 351.3047 0008733 130.2188 282.6573  1.00190939112728
RADUGA 29 [-]           
1 22557U 93013A   22268.84910538  .00000120  00000+0  00000+0 0  9996
2 22557  14.5759 355.4878 0007905 117.1452 238.4318  1.00359077108039
RADUGA 30 [-]           
1 22836U 93062A   22269.88190128 -.00000092  00000+0  00000+0 0  9999
2 22836  14.6182 357.4547 0000895  55.9802 343.7687  1.00258968 32373
RADUGA-1 3 [-]          
1 22981U 94008A   22269.85252267 -.00000272  00000+0  00000+0 0  9991
2 22981  14.6974 358.6043 0004936 117.1659 291.6592  1.00235982104858
RADUGA 31 [-]           
1 23010U 94012A   22269.87578122 -.00000015  00000+0  00000+0 0  9998
2 23010  14.6670 358.6021 0006397 102.6152 283.6135  1.00335164104713
RADUGA 32 [-]           
1 23448U 94087A   22269.88190104 -.00000099  00000+0  00000+0 0  9998
2 23448  14.6523   1.3157 0005500 190.9949 205.6658  1.00260949119253
RADUGA-1 4 [-]          
1 25642U 99010A   22268.96368762  .00000121  00000+0  00000+0 0  9997
2 25642  15.2319  12.8948 0001963 210.0519 169.7505  1.00313460 86310
RADUGA-1 5 [-]          
1 26477U 00049A   22269.82426873  .00000116  00000+0  00000+0 0  9996
2 26477  13.1857  17.7736 0005769  75.0314 254.3907  1.00290983 80786
RADUGA-1 6 [-]          
1 26936U 01045A   22269.32618823 -.00000050  00000+0  00000+0 0  9994
2 26936  13.3583  24.1016 0016982 162.5572 206.1783  0.97743771 75317
RADUGA-1 7 [-]          
1 28194U 04010A   22269.76180615 -.00000363  00000+0  00000+0 0  9995
2 28194  12.0851  30.9249 0002524 152.2480 219.2784  1.00227400 67793
RADUGA-1M 1 [-]         
1 32373U 07058A   22269.63815330  .00000096  00000+0  00000+0 0  9991
2 32373   7.1160  63.3371 0003114  46.7374 357.7114  0.99394413 38885
RADUGA-1 8 [-]          
1 34264U 09010A   22270.39772057 -.00000259  00000+0  00000+0 0  9997
2 34264   9.4241  53.3123 0013929   7.1671  29.3179  0.99823340 49602
RADUGA-1M 2 [+]         
1 36358U 10002A   22270.52549448 -.00000180  00000+0  00000+0 0  9990
2 36358   0.1027 111.0945 0000945 196.0868 333.3302  1.00270275 46386
RADUGA-1M 3 [+]         
1 39375U 13062A   22270.17974260  .00000161  00000+0  00000+0 0  9994
2 39375   2.4840  88.5495 0001659 153.5087 223.6117  1.00271240 32505
